[{"OBJECT_NAME":"KINEIS-1E","OBJECT_ID":"2024-114E","EPOCH":"2026-03-09T22:57:11.384064","MEAN_MOTION":14.80427699,"ECCENTRICITY":0.0002464,"INCLINATION":97.9929,"RA_OF_ASC_NODE":93.4952,"ARG_OF_PERICENTER":86.0273,"MEAN_ANOMALY":274.122,"EPHEMERIS_TYPE":0,"CLASSIFICATION_TYPE":"U","NORAD_CAT_ID":60083,"ELEMENT_SET_NO":999,"REV_AT_EPOCH":9270,"BSTAR":0.00020731869,"MEAN_MOTION_DOT":1.531e-5,"MEAN_MOTION_DDOT":0},{"OBJECT_NAME":"CZ-6A DEB","OBJECT_ID":"2024-140ADC","EPOCH":"2026-03-09T14:35:35.805120","MEAN_MOTION":14.61113698,"ECCENTRICITY":0.0087805,"INCLINATION":89.0602,"RA_OF_ASC_NODE":286.5146,"ARG_OF_PERICENTER":240.3658,"MEAN_ANOMALY":118.8789,"EPHEMERIS_TYPE":0,"CLASSIFICATION_TYPE":"U","NORAD_CAT_ID":61836,"ELEMENT_SET_NO":999,"REV_AT_EPOCH":7838,"BSTAR":0.0011512,"MEAN_MOTION_DOT":5.994e-5,"MEAN_MOTION_DDOT":0}]
